IRIDIUM 172             
1 43927U 19002F   26187.43646803  .00000248  00000+0  81625-4 0  9994
2 43927  86.3985 345.5238 0002208  89.3183 270.8266 14.34217805391728
IRIDIUM 175             
1 43928U 19002G   26187.82257281  .00000297  00000+0  81705-4 0  9999
2 43928  86.4516 282.3136 0004758 132.3461 227.8144 14.43624051401819
IRIDIUM 171             
1 43929U 19002H   26187.48720851  .00000091  00000+0  25298-4 0  9997
2 43929  86.3992 345.8107 0002186  94.6756 265.4689 14.34218495391721
IRIDIUM 170             
1 43930U 19002J   26187.46806074  .00000779  00000+0  11960-3 0  9992
2 43930  86.6102 345.4794 0002370  84.9122 275.2365 14.72241471402096
IRIDIUM 167             
1 43931U 19002K   26187.48086583  .00000060  00000+0  14477-4 0  9990
2 43931  86.3984 345.5275 0002139  98.9932 261.1506 14.34218223391729
IRIDIUM 181             
1 56726U 23068S   26187.72667256  .00000258  00000+0  70767-4 0  9995
2 56726  86.4482  48.6205 0002481  85.6140 274.5344 14.43309219165258
IRIDIUM 177             
1 56727U 23068T   26187.38760915  .00001188  00000+0  15361-3 0  9995
2 56727  86.1979 319.6740 0002131  91.1693 268.9772 14.80019562169200
IRIDIUM 174             
1 56728U 23068U   26187.72753918  .00000813  00000+0  12507-3 0  9992
2 56728  86.6111 345.5202 0002128  81.6004 278.5455 14.72250239168899
IRIDIUM 178             
1 56729U 23068V   26187.57940933  .00000844  00000+0  10813-3 0  9993
2 56729  86.6531  17.2544 0002320  86.8348 273.3139 14.80023012169237
IRIDIUM 179             
1 56730U 23068W   26187.57409312  .00000947  00000+0  12174-3 0  9992
2 56730  86.6766  26.2940 0002267  90.0454 270.1028 14.80027353169238
