[
  {
    "OBJECT_NAME": "IRIDIUM 172",
    "OBJECT_ID": "2019-002F",
    "EPOCH": "2026-07-06T10:28:30.837792",
    "MEAN_MOTION": 14.34217805,
    "ECCENTRICITY": 0.00022089,
    "INCLINATION": 86.3985,
    "RA_OF_ASC_NODE": 345.5238,
    "ARG_OF_PERICENTER": 89.3183,
    "MEAN_ANOMALY": 270.8266,
    "EPHEMERIS_TYPE": 0,
    "CLASSIFICATION_TYPE": "U",
    "NORAD_CAT_ID": 43927,
    "ELEMENT_SET_NO": 999,
    "REV_AT_EPOCH": 39172,
    "BSTAR": 0.000081624981,
    "MEAN_MOTION_DOT": 0.00000248,
    "MEAN_MOTION_DDOT": 0
  },
  {
    "OBJECT_NAME": "IRIDIUM 175",
    "OBJECT_ID": "2019-002G",
    "EPOCH": "2026-07-06T19:44:30.290784",
    "MEAN_MOTION": 14.43624051,
    "ECCENTRICITY": 0.0004758,
    "INCLINATION": 86.4516,
    "RA_OF_ASC_NODE": 282.3136,
    "ARG_OF_PERICENTER": 132.3461,
    "MEAN_ANOMALY": 227.8144,
    "EPHEMERIS_TYPE": 0,
    "CLASSIFICATION_TYPE": "U",
    "NORAD_CAT_ID": 43928,
    "ELEMENT_SET_NO": 999,
    "REV_AT_EPOCH": 40181,
    "BSTAR": 0.000081705,
    "MEAN_MOTION_DOT": 0.00000297,
    "MEAN_MOTION_DDOT": 0
  },
  {
    "OBJECT_NAME": "IRIDIUM 171",
    "OBJECT_ID": "2019-002H",
    "EPOCH": "2026-07-06T11:41:34.815264",
    "MEAN_MOTION": 14.34218495,
    "ECCENTRICITY": 0.0002186,
    "INCLINATION": 86.3992,
    "RA_OF_ASC_NODE": 345.8107,
    "ARG_OF_PERICENTER": 94.6756,
    "MEAN_ANOMALY": 265.4689,
    "EPHEMERIS_TYPE": 0,
    "CLASSIFICATION_TYPE": "U",
    "NORAD_CAT_ID": 43929,
    "ELEMENT_SET_NO": 999,
    "REV_AT_EPOCH": 39172,
    "BSTAR": 0.000025298,
    "MEAN_MOTION_DOT": 9.1e-7,
    "MEAN_MOTION_DDOT": 0
  },
  {
    "OBJECT_NAME": "IRIDIUM 170",
    "OBJECT_ID": "2019-002J",
    "EPOCH": "2026-07-06T11:14:00.447936",
    "MEAN_MOTION": 14.72241471,
    "ECCENTRICITY": 0.000237,
    "INCLINATION": 86.6102,
    "RA_OF_ASC_NODE": 345.4794,
    "ARG_OF_PERICENTER": 84.9122,
    "MEAN_ANOMALY": 275.2365,
    "EPHEMERIS_TYPE": 0,
    "CLASSIFICATION_TYPE": "U",
    "NORAD_CAT_ID": 43930,
    "ELEMENT_SET_NO": 999,
    "REV_AT_EPOCH": 40209,
    "BSTAR": 0.0001196,
    "MEAN_MOTION_DOT": 0.00000779,
    "MEAN_MOTION_DDOT": 0
  },
  {
    "OBJECT_NAME": "IRIDIUM 167",
    "OBJECT_ID": "2019-002K",
    "EPOCH": "2026-07-06T11:32:26.807712",
    "MEAN_MOTION": 14.34218223,
    "ECCENTRICITY": 0.0002139,
    "INCLINATION": 86.3984,
    "RA_OF_ASC_NODE": 345.5275,
    "ARG_OF_PERICENTER": 98.9932,
    "MEAN_ANOMALY": 261.1506,
    "EPHEMERIS_TYPE": 0,
    "CLASSIFICATION_TYPE": "U",
    "NORAD_CAT_ID": 43931,
    "ELEMENT_SET_NO": 999,
    "REV_AT_EPOCH": 39172,
    "BSTAR": 0.000014477,
    "MEAN_MOTION_DOT": 6e-7,
    "MEAN_MOTION_DDOT": 0
  },
  {
    "OBJECT_NAME": "IRIDIUM 181",
    "OBJECT_ID": "2023-068S",
    "EPOCH": "2026-07-06T17:26:24.509184",
    "MEAN_MOTION": 14.43309219,
    "ECCENTRICITY": 0.0002481,
    "INCLINATION": 86.4482,
    "RA_OF_ASC_NODE": 48.6205,
    "ARG_OF_PERICENTER": 85.614,
    "MEAN_ANOMALY": 274.5344,
    "EPHEMERIS_TYPE": 0,
    "CLASSIFICATION_TYPE": "U",
    "NORAD_CAT_ID": 56726,
    "ELEMENT_SET_NO": 999,
    "REV_AT_EPOCH": 16525,
    "BSTAR": 0.000070767,
    "MEAN_MOTION_DOT": 0.00000258,
    "MEAN_MOTION_DDOT": 0
  },
  {
    "OBJECT_NAME": "IRIDIUM 177",
    "OBJECT_ID": "2023-068T",
    "EPOCH": "2026-07-06T09:18:09.430560",
    "MEAN_MOTION": 14.80019562,
    "ECCENTRICITY": 0.00021315,
    "INCLINATION": 86.1979,
    "RA_OF_ASC_NODE": 319.674,
    "ARG_OF_PERICENTER": 91.1693,
    "MEAN_ANOMALY": 268.9772,
    "EPHEMERIS_TYPE": 0,
    "CLASSIFICATION_TYPE": "U",
    "NORAD_CAT_ID": 56727,
    "ELEMENT_SET_NO": 999,
    "REV_AT_EPOCH": 16920,
    "BSTAR": 0.00015361384,
    "MEAN_MOTION_DOT": 0.00001188,
    "MEAN_MOTION_DDOT": 0
  },
  {
    "OBJECT_NAME": "IRIDIUM 174",
    "OBJECT_ID": "2023-068U",
    "EPOCH": "2026-07-06T17:27:39.385152",
    "MEAN_MOTION": 14.72250239,
    "ECCENTRICITY": 0.0002128,
    "INCLINATION": 86.6111,
    "RA_OF_ASC_NODE": 345.5202,
    "ARG_OF_PERICENTER": 81.6004,
    "MEAN_ANOMALY": 278.5455,
    "EPHEMERIS_TYPE": 0,
    "CLASSIFICATION_TYPE": "U",
    "NORAD_CAT_ID": 56728,
    "ELEMENT_SET_NO": 999,
    "REV_AT_EPOCH": 16889,
    "BSTAR": 0.00012507,
    "MEAN_MOTION_DOT": 0.00000813,
    "MEAN_MOTION_DDOT": 0
  },
  {
    "OBJECT_NAME": "IRIDIUM 178",
    "OBJECT_ID": "2023-068V",
    "EPOCH": "2026-07-06T13:54:20.966112",
    "MEAN_MOTION": 14.80023012,
    "ECCENTRICITY": 0.000232,
    "INCLINATION": 86.6531,
    "RA_OF_ASC_NODE": 17.2544,
    "ARG_OF_PERICENTER": 86.8348,
    "MEAN_ANOMALY": 273.3139,
    "EPHEMERIS_TYPE": 0,
    "CLASSIFICATION_TYPE": "U",
    "NORAD_CAT_ID": 56729,
    "ELEMENT_SET_NO": 999,
    "REV_AT_EPOCH": 16923,
    "BSTAR": 0.00010813,
    "MEAN_MOTION_DOT": 0.00000844,
    "MEAN_MOTION_DDOT": 0
  },
  {
    "OBJECT_NAME": "IRIDIUM 179",
    "OBJECT_ID": "2023-068W",
    "EPOCH": "2026-07-06T13:46:41.645568",
    "MEAN_MOTION": 14.80027353,
    "ECCENTRICITY": 0.0002267,
    "INCLINATION": 86.6766,
    "RA_OF_ASC_NODE": 26.294,
    "ARG_OF_PERICENTER": 90.0454,
    "MEAN_ANOMALY": 270.1028,
    "EPHEMERIS_TYPE": 0,
    "CLASSIFICATION_TYPE": "U",
    "NORAD_CAT_ID": 56730,
    "ELEMENT_SET_NO": 999,
    "REV_AT_EPOCH": 16923,
    "BSTAR": 0.00012174,
    "MEAN_MOTION_DOT": 0.00000947,
    "MEAN_MOTION_DDOT": 0
  }
]